*******************************************************************************
Ephemeris / WWW_USER Wed Mar 14 15:51:07 2018 Pasadena, USA      / Horizons    
*******************************************************************************
Target body name: Triton (801)                    {source: nep081xl}
Center body name: Solar System Barycenter (0)     {source: DE431mx}
Center-site name: BODY CENTER
*******************************************************************************
Start time      : A.D. 2000-Jan-01 00:00:00.0000 TDB
Stop  time      : A.D. 2001-Jan-01 00:00:00.0000 TDB
Step-size       : 7200 minutes
*******************************************************************************
Center geodetic : 0.00000000,0.00000000,0.0000000 {E-lon(deg),Lat(deg),Alt(km)}
Center cylindric: 0.00000000,0.00000000,0.0000000 {E-lon(deg),Dxy(km),Dz(km)}
Center radii    : (undefined)                                                  
Output units    : AU-D                                                         
Output type     : GEOMETRIC cartesian states
Output format   : 2 (position and velocity)
Reference frame : ICRF/J2000.0                                                 
Coordinate systm: Ecliptic and Mean Equinox of Reference Epoch                 
*******************************************************************************
JDTDB
   X     Y     Z
   VX    VY    VZ
*******************************************************************************
$$SOE
2451544.500000000 = A.D. 2000-Jan-01 00:00:00.0000 TDB 
   1.680161148768922E+01 -2.499557937563695E+01  1.287343375612092E-01
   3.322075722745033E-03  3.755616943871269E-03  1.295641636249839E-03
2451549.500000000 = A.D. 2000-Jan-06 00:00:00.0000 TDB 
   1.681479577543561E+01 -2.498817123951339E+01  1.266921490360941E-01
   1.291679921462600E-03  2.828934423678888E-03  1.810821523120200E-03
2451554.500000000 = A.D. 2000-Jan-11 00:00:00.0000 TDB 
   1.682939826311532E+01 -2.497946800290916E+01  1.248990862717042E-01
   3.162317329160134E-04  1.038290341978009E-03  7.694911433835753E-04
2451559.500000000 = A.D. 2000-Jan-16 00:00:00.0000 TDB 
   1.684404286807647E+01 -2.496934413780337E+01  1.244269184686546E-01
   1.191163824506217E-03 -1.533582517084043E-04 -9.783426802585618E-04
2451564.500000000 = A.D. 2000-Jan-21 00:00:00.0000 TDB 
   1.685731549009022E+01 -2.495882836458081E+01  1.252692010582077E-01
   3.201437892323297E-03  2.279670039454026E-04 -2.006014046736999E-03
2451569.500000000 = A.D. 2000-Jan-26 00:00:00.0000 TDB 
   1.686891832366091E+01 -2.494926388950274E+01  1.263465049456926E-01
   4.705227711954052E-03  1.872154129024694E-03 -1.474614433325471E-03
2451574.500000000 = A.D. 2000-Jan-31 00:00:00.0000 TDB 
   1.687991295363208E+01 -2.494121181251273E+01  1.263874818914159E-01
   4.474201414417980E-03  3.438021381001840E-03  1.821242251379096E-04
2451579.500000000 = A.D. 2000-Feb-05 00:00:00.0000 TDB 
   1.689185368995833E+01 -2.493399298320860E+01  1.249666657592756E-01
   2.696276192826811E-03  3.648259439501860E-03  1.611840073007002E-03
2451584.500000000 = A.D. 2000-Feb-10 00:00:00.0000 TDB 
   1.690551869337634E+01 -2.492624241195750E+01  1.228518148003216E-01
   8.221833022640392E-04  2.332270679331462E-03  1.647435917665796E-03
2451589.500000000 = A.D. 2000-Feb-15 00:00:00.0000 TDB 
   1.692027475060503E+01 -2.491702367794374E+01  1.213772065477531E-01
   3.810564024167836E-04  5.655284698272261E-04  2.598578945803556E-04
2451594.500000000 = A.D. 2000-Feb-20 00:00:00.0000 TDB 
   1.693459431451838E+01 -2.490659343297160E+01  1.213544725343478E-01
   1.732133170153108E-03 -2.085356653241745E-04 -1.418277491770104E-03
2451599.500000000 = A.D. 2000-Feb-25 00:00:00.0000 TDB 
   1.694730248603719E+01 -2.489619188459513E+01  1.224101213945934E-01
   3.771703184789125E-03  6.431784607537585E-04 -2.017174134584048E-03
2451604.500000000 = A.D. 2000-Mar-01 00:00:00.0000 TDB 
   1.695853607450266E+01 -2.488703037374423E+01  1.232903506366949E-01
   4.834018915792351E-03  2.426518257384885E-03 -1.047910761753748E-03
2451609.500000000 = A.D. 2000-Mar-06 00:00:00.0000 TDB 
   1.696963189386425E+01 -2.487930240209970E+01  1.228844781147148E-01
   4.051159008257378E-03  3.686674404531342E-03  6.983504337625389E-04
2451614.500000000 = A.D. 2000-Mar-11 00:00:00.0000 TDB 
   1.698203541740985E+01 -2.487202559726489E+01  1.211316015132409E-01
   2.061526207492793E-03  3.395898461696526E-03  1.796154699400624E-03
2451619.500000000 = A.D. 2000-Mar-16 00:00:00.0000 TDB 
   1.699612075844437E+01 -2.486384369054153E+01  1.190703538720349E-01
   4.886651008512322E-04  1.792637770770031E-03  1.349343878739599E-03
2451624.500000000 = A.D. 2000-Mar-21 00:00:00.0000 TDB 
   1.701088532262584E+01 -2.485413381908062E+01  1.179910645299413E-01
   6.157424720520750E-04  1.868860639611573E-04 -2.773504121037600E-04
2451629.500000000 = A.D. 2000-Mar-26 00:00:00.0000 TDB 
   1.702476837356058E+01 -2.484351501977685E+01  1.183824959800209E-01
   2.338167214590633E-03 -1.093517357554357E-04 -1.756146187379402E-03
2451634.500000000 = A.D. 2000-Mar-31 00:00:00.0000 TDB 
   1.703692506475243E+01 -2.483334289747000E+01  1.195328963575090E-01
   4.249090593252643E-03  1.146956793110680E-03 -1.879930357509712E-03
2451639.500000000 = A.D. 2000-Apr-05 00:00:00.0000 TDB 
   1.704791608939727E+01 -2.482460296580918E+01  1.201109164138748E-01
   4.787787985666244E-03  2.931322418373549E-03 -5.476076474786117E-04
2451644.500000000 = A.D. 2000-Apr-10 00:00:00.0000 TDB 
   1.705924992822333E+01 -2.481710601904519E+01  1.192523672726196E-01
   3.513801134919035E-03  3.788076473743335E-03  1.153291664411788E-03
2451649.500000000 = A.D. 2000-Apr-15 00:00:00.0000 TDB 
   1.707215137411903E+01 -2.480964254287261E+01  1.172656770436041E-01
   1.466462273019408E-03  3.018794035607555E-03  1.834322614182108E-03
2451654.500000000 = A.D. 2000-Apr-20 00:00:00.0000 TDB 
   1.708656167312076E+01 -2.480097015594919E+01  1.153801585116360E-01
   3.163921319811702E-04  1.252595443077613E-03  9.395490638271713E-04
2451659.500000000 = A.D. 2000-Apr-25 00:00:00.0000 TDB 
   1.710118658286986E+01 -2.479082792950259E+01  1.147425097786389E-01
   1.001571191187223E-03 -6.752163529483314E-05 -8.006453277508946E-04
2451664.500000000 = A.D. 2000-Apr-30 00:00:00.0000 TDB 
   1.711455297764138E+01 -2.478014939395567E+01  1.154808213470229E-01
   2.961839536946684E-03  1.372815107141807E-04 -1.965834125487343E-03
2451669.500000000 = A.D. 2000-May-05 00:00:00.0000 TDB 
   1.712621134432608E+01 -2.477030048411052E+01  1.166000010113582E-01
   4.596182311232344E-03  1.700998584118753E-03 -1.604864125848504E-03
2451674.500000000 = A.D. 2000-May-10 00:00:00.0000 TDB 
   1.713710272143726E+01 -2.476196440637892E+01  1.167939881728292E-01
   4.569672383783075E-03  3.348144449874126E-03 -1.234463497213227E-05
2451679.500000000 = A.D. 2000-May-15 00:00:00.0000 TDB 
   1.714879044285723E+01 -2.475458380711148E+01  1.155118863165713E-01
   2.903258494799201E-03  3.735053843603231E-03  1.511788868077787E-03
2451684.500000000 = A.D. 2000-May-20 00:00:00.0000 TDB 
   1.716218389364882E+01 -2.474681574523504E+01  1.134076900374684E-01
   9.566287530458320E-04  2.546882506224493E-03  1.723369980565317E-03
2451689.500000000 = A.D. 2000-May-25 00:00:00.0000 TDB 
   1.717679615123982E+01 -2.473762809104273E+01  1.118064521402569E-01
   3.181399798575911E-04  7.547438182891035E-04  4.496862422330173E-04
2451694.500000000 = A.D. 2000-May-30 00:00:00.0000 TDB 
   1.719114160013585E+01 -2.472714217576877E+01  1.116226410062818E-01
   1.508130288765267E-03 -1.772032444515028E-04 -1.269605532155677E-03
2451699.500000000 = A.D. 2000-Jun-04 00:00:00.0000 TDB 
   1.720394870388176E+01 -2.471653373953661E+01  1.126137223992190E-01
   3.554370463205186E-03  5.130152701907032E-04 -2.031124058934694E-03
2451704.500000000 = A.D. 2000-Jun-09 00:00:00.0000 TDB 
   1.721519794643563E+01 -2.470707314437194E+01  1.135780827322070E-01
   4.785655845990279E-03  2.263090799147016E-03 -1.213205518001854E-03
2451709.500000000 = A.D. 2000-Jun-14 00:00:00.0000 TDB 
   1.722613774679350E+01 -2.469908822801952E+01  1.133358492035193E-01
   4.196109270138503E-03  3.645370546370510E-03  5.165316195632059E-04
2451714.500000000 = A.D. 2000-Jun-19 00:00:00.0000 TDB 
   1.723826527231304E+01 -2.469169659603651E+01  1.116920263665793E-01
   2.266310768984350E-03  3.532403117390003E-03  1.746127944322693E-03
2451719.500000000 = A.D. 2000-Jun-24 00:00:00.0000 TDB 
   1.725210421684658E+01 -2.468352597051994E+01  1.095957100277625E-01
   5.709531791110948E-04  2.017456996537788E-03  1.471842873416240E-03
2451724.500000000 = A.D. 2000-Jun-29 00:00:00.0000 TDB 
   1.726677733037742E+01 -2.467383455887949E+01  1.083653435806927E-01
   4.932097443404651E-04  3.384215035173014E-04 -8.242106074159597E-05
2451729.500000000 = A.D. 2000-Jul-04 00:00:00.0000 TDB 
   1.728072267034566E+01 -2.466311664837321E+01  1.086124950811305E-01
   2.095670446910354E-03 -1.328830042148057E-04 -1.647998890187578E-03
2451734.500000000 = A.D. 2000-Jul-09 00:00:00.0000 TDB 
   1.729296863133030E+01 -2.465269910705796E+01  1.097426765791458E-01
   4.069403801493048E-03  9.894830969156599E-04 -1.946951298295890E-03
2451739.500000000 = A.D. 2000-Jul-14 00:00:00.0000 TDB 
   1.730392706479925E+01 -2.464365819756733E+01  1.104405418383052E-01
   4.802394998700843E-03  2.790382780325064E-03 -7.351945247680650E-04
2451744.500000000 = A.D. 2000-Jul-19 00:00:00.0000 TDB 
   1.731505703809048E+01 -2.463594086702538E+01  1.097435725938879E-01
   3.695559408636532E-03  3.800648282334214E-03  9.981605251241415E-04
2451749.500000000 = A.D. 2000-Jul-24 00:00:00.0000 TDB 
   1.732767369323377E+01 -2.462840800130951E+01  1.078277977402535E-01
   1.651763155656565E-03  3.196523021955136E-03  1.838182736987440E-03
